{"type": "FeatureCollection", "features": [ {"type": "Feature", "properties": {"norad_id": 62339, "name": "GPS BIII-7  (PRN 01)", "group": "gps-ops", "lat": 52.759247051411094, "lon": 49.2281743991553, "alt_km": 20176.59727912829, "timestamp": "2025-12-14T11:29:50.319406+00:00", "meta": {"OBJECT_NAME": "GPS BIII-7  (PRN 01)", "OBJECT_ID": "2024-242A", "EPOCH": "2025-12-13T08:55:39.244800", "MEAN_MOTION": 2.00567973, "ECCENTRICITY": 0.00122972, "INCLINATION": 54.9234, "RA_OF_ASC_NODE": 341.714, "ARG_OF_PERICENTER": 344.9239, "MEAN_ANOMALY": 12.1981, "EPHEMERIS_TYPE": 0, "CLASSIFICATION_TYPE": "U", "NORAD_CAT_ID": 62339, "ELEMENT_SET_NO": 999, "REV_AT_EPOCH": 752, "BSTAR": 0, "MEAN_MOTION_DOT": -9.1e-07, "MEAN_MOTION_DDOT": 0}, "tle": {"line1": "1 62339U 24242A   25347.37198200 -.00000091  00000+0  00000+0 0  9997", "line2": "2 62339  54.9234 341.7140 0012297 344.9239  12.1981  2.00567973  7522"}}, "geometry": {"type": "Point", "coordinates": [49.2281743991553, 52.759247051411094]}}, {"type": "Feature", "properties": {"norad_id": 64202, "name": "GPS BIII-8  (PRN 21)", "group": "gps-ops", "lat": -54.89980402393138, "lon": -58.6218532840897, "alt_km": 20177.527191931324, "timestamp": "2025-12-14T11:29:50.319428+00:00", "meta": {"OBJECT_NAME": "GPS BIII-8  (PRN 21)", "OBJECT_ID": "2025-116A", "EPOCH": "2025-12-13T02:48:10.465056", "MEAN_MOTION": 2.00558313, "ECCENTRICITY": 0.00055988, "INCLINATION": 55.106, "RA_OF_ASC_NODE": 38.6253, "ARG_OF_PERICENTER": 307.9903, "MEAN_ANOMALY": 54.3389, "EPHEMERIS_TYPE": 0, "CLASSIFICATION_TYPE": "U", "NORAD_CAT_ID": 64202, "ELEMENT_SET_NO": 999, "REV_AT_EPOCH": 414, "BSTAR": 0, "MEAN_MOTION_DOT": -9.8e-07, "MEAN_MOTION_DDOT": 0}, "tle": {"line1": "1 64202U 25116A   25347.11678779 -.00000098  00000+0  00000+0 0  9992", "line2": "2 64202  55.1060  38.6253 0005598 307.9903  54.3389  2.00558313  4146"}}, "geometry": {"type": "Point", "coordinates": [-58.6218532840897, -54.89980402393138]}}]}